[{"CCSDS_OMM_VERS":"2.0","COMMENT":"GENERATED VIA SPACE-TRACK.ORG API","CREATION_DATE":"2020-07-27T22:26:10","ORIGINATOR":"18 SPCS","OBJECT_NAME":"ONEWEB-0027","OBJECT_ID":"2020-020J","CENTER_NAME":"EARTH","REF_FRAME":"TEME","TIME_SYSTEM":"UTC","MEAN_ELEMENT_THEORY":"SGP4","EPOCH":"2020-07-27T22:00:01.999584","MEAN_MOTION":"14.89877945","ECCENTRICITY":"0.00261060","INCLINATION":"87.5628","RA_OF_ASC_NODE":"97.4178","ARG_OF_PERICENTER":"188.7208","MEAN_ANOMALY":"91.9135","EPHEMERIS_TYPE":"0","CLASSIFICATION_TYPE":"U","NORAD_CAT_ID":"45432","ELEMENT_SET_NO":"999","REV_AT_EPOCH":"1927","BSTAR":"-0.00270170000000","MEAN_MOTION_DOT":"-0.00025974","MEAN_MOTION_DDOT":"0.0000000000000","SEMIMAJOR_AXIS":"6976.453","PERIOD":"96.652","APOAPSIS":"616.531","PERIAPSIS":"580.105","OBJECT_TYPE":"PAYLOAD","RCS_SIZE":"MEDIUM","COUNTRY_CODE":"UK","LAUNCH_DATE":"2020-03-21","SITE":"TTMTR","DECAY_DATE":null,"FILE":"2792255","GP_ID":"158321667","TLE_LINE0":"0 ONEWEB-0027","TLE_LINE1":"1 45432U 20020J   20209.91668981 -.00025974  00000-0 -27017-2 0  9991","TLE_LINE2":"2 45432  87.5628  97.4178 0026106 188.7208  91.9135 14.89877945 19270"},{"CCSDS_OMM_VERS":"2.0","COMMENT":"GENERATED VIA SPACE-TRACK.ORG API","CREATION_DATE":"2020-07-28T20:26:10","ORIGINATOR":"18 SPCS","OBJECT_NAME":"ONEWEB-0027","OBJECT_ID":"2020-020J","CENTER_NAME":"EARTH","REF_FRAME":"TEME","TIME_SYSTEM":"UTC","MEAN_ELEMENT_THEORY":"SGP4","EPOCH":"2020-07-28T12:00:00.999648","MEAN_MOTION":"14.89844647","ECCENTRICITY":"0.00261950","INCLINATION":"87.5629","RA_OF_ASC_NODE":"97.2388","ARG_OF_PERICENTER":"186.3934","MEAN_ANOMALY":"340.8125","EPHEMERIS_TYPE":"0","CLASSIFICATION_TYPE":"U","NORAD_CAT_ID":"45432","ELEMENT_SET_NO":"999","REV_AT_EPOCH":"1936","BSTAR":"0.00414950000000","MEAN_MOTION_DOT":"0.00040305","MEAN_MOTION_DDOT":"0.0000000000000","SEMIMAJOR_AXIS":"6976.557","PERIOD":"96.654","APOAPSIS":"616.697","PERIAPSIS":"580.147","OBJECT_TYPE":"PAYLOAD","RCS_SIZE":"MEDIUM","COUNTRY_CODE":"UK","LAUNCH_DATE":"2020-03-21","SITE":"TTMTR","DECAY_DATE":null,"FILE":"2792648","GP_ID":"158391596","TLE_LINE0":"0 ONEWEB-0027","TLE_LINE1":"1 45432U 20020J   20210.50001157  .00040305  00000-0  41495-2 0  9993","TLE_LINE2":"2 45432  87.5629  97.2388 0026195 186.3934 340.8125 14.89844647 19368"},{"CCSDS_OMM_VERS":"2.0","COMMENT":"GENERATED VIA SPACE-TRACK.ORG API","CREATION_DATE":"2020-07-28T18:48:22","ORIGINATOR":"18 SPCS","OBJECT_NAME":"ONEWEB-0027","OBJECT_ID":"2020-020J","CENTER_NAME":"EARTH","REF_FRAME":"TEME","TIME_SYSTEM":"UTC","MEAN_ELEMENT_THEORY":"SGP4","EPOCH":"2020-07-28T14:00:01.000224","MEAN_MOTION":"14.89838249","ECCENTRICITY":"0.00262130","INCLINATION":"87.5629","RA_OF_ASC_NODE":"97.2131","ARG_OF_PERICENTER":"186.0625","MEAN_ANOMALY":"67.8022","EPHEMERIS_TYPE":"0","CLASSIFICATION_TYPE":"U","NORAD_CAT_ID":"45432","ELEMENT_SET_NO":"999","REV_AT_EPOCH":"176","BSTAR":"0.00673170000000","MEAN_MOTION_DOT":"0.00065592","MEAN_MOTION_DDOT":"0.0000000000000","SEMIMAJOR_AXIS":"6976.577","PERIOD":"96.654","APOAPSIS":"616.730","PERIAPSIS":"580.154","OBJECT_TYPE":"PAYLOAD","RCS_SIZE":"MEDIUM","COUNTRY_CODE":"UK","LAUNCH_DATE":"2020-03-21","SITE":"TTMTR","DECAY_DATE":null,"FILE":"2792599","GP_ID":"158369640","TLE_LINE0":"0 ONEWEB-0027","TLE_LINE1":"1 45432U 20020J   20210.58334491 +.00065592 +00000-0 +67317-2 0  9997","TLE_LINE2":"2 45432 087.5629 097.2131 0026213 186.0625 067.8022 14.89838249001767"},{"CCSDS_OMM_VERS":"2.0","COMMENT":"GENERATED VIA SPACE-TRACK.ORG API","CREATION_DATE":"2020-07-29T01:33:50","ORIGINATOR":"18 SPCS","OBJECT_NAME":"ONEWEB-0027","OBJECT_ID":"2020-020J","CENTER_NAME":"EARTH","REF_FRAME":"TEME","TIME_SYSTEM":"UTC","MEAN_ELEMENT_THEORY":"SGP4","EPOCH":"2020-07-28T22:00:00.999936","MEAN_MOTION":"14.89877036","ECCENTRICITY":"0.00262230","INCLINATION":"87.5629","RA_OF_ASC_NODE":"97.1089","ARG_OF_PERICENTER":"185.0349","MEAN_ANOMALY":"55.4645","EPHEMERIS_TYPE":"0","CLASSIFICATION_TYPE":"U","NORAD_CAT_ID":"45432","ELEMENT_SET_NO":"999","REV_AT_EPOCH":"175","BSTAR":"-0.00263940000000","MEAN_MOTION_DOT":"-0.00025378","MEAN_MOTION_DDOT":"0.0000000000000","SEMIMAJOR_AXIS":"6976.456","PERIOD":"96.652","APOAPSIS":"616.615","PERIAPSIS":"580.027","OBJECT_TYPE":"PAYLOAD","RCS_SIZE":"MEDIUM","COUNTRY_CODE":"UK","LAUNCH_DATE":"2020-03-21","SITE":"TTMTR","DECAY_DATE":null,"FILE":"2792792","GP_ID":"158412949","TLE_LINE0":"0 ONEWEB-0027","TLE_LINE1":"1 45432U 20020J   20210.91667824 -.00025378 +00000-0 -26394-2 0  9993","TLE_LINE2":"2 45432 087.5629 097.1089 0026223 185.0349 055.4645 14.89877036001751"},{"CCSDS_OMM_VERS":"2.0","COMMENT":"GENERATED VIA SPACE-TRACK.ORG API","CREATION_DATE":"2020-07-29T06:36:10","ORIGINATOR":"18 SPCS","OBJECT_NAME":"ONEWEB-0027","OBJECT_ID":"2020-020J","CENTER_NAME":"EARTH","REF_FRAME":"TEME","TIME_SYSTEM":"UTC","MEAN_ELEMENT_THEORY":"SGP4","EPOCH":"2020-07-29T06:00:00.999648","MEAN_MOTION":"14.89893997","ECCENTRICITY":"0.00262380","INCLINATION":"87.5629","RA_OF_ASC_NODE":"97.0063","ARG_OF_PERICENTER":"183.6488","MEAN_ANOMALY":"43.4815","EPHEMERIS_TYPE":"0","CLASSIFICATION_TYPE":"U","NORAD_CAT_ID":"45432","ELEMENT_SET_NO":"999","REV_AT_EPOCH":"1947","BSTAR":"-0.00421730000000","MEAN_MOTION_DOT":"-0.00040498","MEAN_MOTION_DDOT":"0.0000000000000","SEMIMAJOR_AXIS":"6976.403","PERIOD":"96.651","APOAPSIS":"616.573","PERIAPSIS":"579.963","OBJECT_TYPE":"PAYLOAD","RCS_SIZE":"MEDIUM","COUNTRY_CODE":"UK","LAUNCH_DATE":"2020-03-21","SITE":"TTMTR","DECAY_DATE":null,"FILE":"2792882","GP_ID":"158416704","TLE_LINE0":"0 ONEWEB-0027","TLE_LINE1":"1 45432U 20020J   20211.25001157 -.00040498  00000-0 -42173-2 0  9995","TLE_LINE2":"2 45432  87.5629  97.0063 0026238 183.6488  43.4815 14.89893997 19474"},{"CCSDS_OMM_VERS":"2.0","COMMENT":"GENERATED VIA SPACE-TRACK.ORG API","CREATION_DATE":"2020-07-29T20:46:10","ORIGINATOR":"18 SPCS","OBJECT_NAME":"ONEWEB-0027","OBJECT_ID":"2020-020J","CENTER_NAME":"EARTH","REF_FRAME":"TEME","TIME_SYSTEM":"UTC","MEAN_ELEMENT_THEORY":"SGP4","EPOCH":"2020-07-29T20:00:01.000224","MEAN_MOTION":"14.89897739","ECCENTRICITY":"0.00263320","INCLINATION":"87.5631","RA_OF_ASC_NODE":"96.8260","ARG_OF_PERICENTER":"181.6802","MEAN_ANOMALY":"292.0749","EPHEMERIS_TYPE":"0","CLASSIFICATION_TYPE":"U","NORAD_CAT_ID":"45432","ELEMENT_SET_NO":"999","REV_AT_EPOCH":"1956","BSTAR":"-0.00597160000000","MEAN_MOTION_DOT":"-0.00057229","MEAN_MOTION_DDOT":"0.0000000000000","SEMIMAJOR_AXIS":"6976.391","PERIOD":"96.650","APOAPSIS":"616.627","PERIAPSIS":"579.886","OBJECT_TYPE":"PAYLOAD","RCS_SIZE":"MEDIUM","COUNTRY_CODE":"UK","LAUNCH_DATE":"2020-03-21","SITE":"TTMTR","DECAY_DATE":null,"FILE":"2793191","GP_ID":"158443969","TLE_LINE0":"0 ONEWEB-0027","TLE_LINE1":"1 45432U 20020J   20211.83334491 -.00057229  00000-0 -59716-2 0  9990","TLE_LINE2":"2 45432  87.5631  96.8260 0026332 181.6802 292.0749 14.89897739 19562"},{"CCSDS_OMM_VERS":"2.0","COMMENT":"GENERATED VIA SPACE-TRACK.ORG API","CREATION_DATE":"2020-07-30T05:08:42","ORIGINATOR":"18 SPCS","OBJECT_NAME":"ONEWEB-0027","OBJECT_ID":"2020-020J","CENTER_NAME":"EARTH","REF_FRAME":"TEME","TIME_SYSTEM":"UTC","MEAN_ELEMENT_THEORY":"SGP4","EPOCH":"2020-07-29T22:00:00.999936","MEAN_MOTION":"14.89875428","ECCENTRICITY":"0.00263320","INCLINATION":"87.5631","RA_OF_ASC_NODE":"96.8000","ARG_OF_PERICENTER":"181.3932","MEAN_ANOMALY":"19.0320","EPHEMERIS_TYPE":"0","CLASSIFICATION_TYPE":"U","NORAD_CAT_ID":"45432","ELEMENT_SET_NO":"999","REV_AT_EPOCH":"174","BSTAR":"-0.00232250000000","MEAN_MOTION_DOT":"-0.00022337","MEAN_MOTION_DDOT":"0.0000000000000","SEMIMAJOR_AXIS":"6976.461","PERIOD":"96.652","APOAPSIS":"616.696","PERIAPSIS":"579.956","OBJECT_TYPE":"PAYLOAD","RCS_SIZE":"MEDIUM","COUNTRY_CODE":"UK","LAUNCH_DATE":"2020-03-21","SITE":"TTMTR","DECAY_DATE":null,"FILE":"2793351","GP_ID":"158465262","TLE_LINE0":"0 ONEWEB-0027","TLE_LINE1":"1 45432U 20020J   20211.91667824 -.00022337 +00000-0 -23225-2 0  9996","TLE_LINE2":"2 45432 087.5631 096.8000 0026332 181.3932 019.0320 14.89875428001749"},{"CCSDS_OMM_VERS":"2.0","COMMENT":"GENERATED VIA SPACE-TRACK.ORG API","CREATION_DATE":"2020-07-30T06:36:09","ORIGINATOR":"18 SPCS","OBJECT_NAME":"ONEWEB-0027","OBJECT_ID":"2020-020J","CENTER_NAME":"EARTH","REF_FRAME":"TEME","TIME_SYSTEM":"UTC","MEAN_ELEMENT_THEORY":"SGP4","EPOCH":"2020-07-30T06:00:00.999648","MEAN_MOTION":"14.89896304","ECCENTRICITY":"0.00263660","INCLINATION":"87.5632","RA_OF_ASC_NODE":"96.6973","ARG_OF_PERICENTER":"179.9476","MEAN_ANOMALY":"7.1073","EPHEMERIS_TYPE":"0","CLASSIFICATION_TYPE":"U","NORAD_CAT_ID":"45432","ELEMENT_SET_NO":"999","REV_AT_EPOCH":"1962","BSTAR":"-0.00455750000000","MEAN_MOTION_DOT":"-0.00043752","MEAN_MOTION_DDOT":"0.0000000000000","SEMIMAJOR_AXIS":"6976.396","PERIOD":"96.651","APOAPSIS":"616.655","PERIAPSIS":"579.867","OBJECT_TYPE":"PAYLOAD","RCS_SIZE":"MEDIUM","COUNTRY_CODE":"UK","LAUNCH_DATE":"2020-03-21","SITE":"TTMTR","DECAY_DATE":null,"FILE":"2793412","GP_ID":"158468581","TLE_LINE0":"0 ONEWEB-0027","TLE_LINE1":"1 45432U 20020J   20212.25001157 -.00043752  00000-0 -45575-2 0  9991","TLE_LINE2":"2 45432  87.5632  96.6973 0026366 179.9476   7.1073 14.89896304 19625"}]